NORAD_CAT_ID,OBJECT_NAME,OBJECT_TYPE,EPOCH,MEAN_MOTION,ECCENTRICITY,INCLINATION,RA_OF_ASC_NODE,ARG_OF_PERICENTER,MEAN_ANOMALY,BSTAR,MEAN_MOTION_DOT,MEAN_MOTION_DDOT,TLE_LINE0,TLE_LINE1,TLE_LINE2,SEMIMAJOR_AXIS,PERIOD,APOGEE,PERIGEE,DECAYED
51988.0,STARLINK-3640,PAYLOAD,2024-08-08 03:43:55,15.08841733,0.0001609,53.2159,116.2595,72.2324,287.8844,0.00018721,2.693e-05,0.0,0 STARLINK-3640,1 51988U 22025AJ  24221.15550017  .00002693  00000-0  18721-3 0  9999,2 51988  53.2159 116.2595 0001609  72.2324 287.8844 15.08841733133720,6917.875,95.437,540.853,538.627,0.0
51988.0,STARLINK-3640,PAYLOAD,2024-08-08 22:48:33,15.08845524,0.0001444,53.2164,112.6927,114.7599,245.3543,-6.7085e-05,-1.356e-05,0.0,0 STARLINK-3640,1 51988U 22025AJ  24221.95038224 -.00001356  00000-0 -67085-4 0  9993,2 51988  53.2164 112.6927 0001444 114.7599 245.3543 15.08845524133848,6917.864,95.437,540.727,538.73,0.0
51988.0,STARLINK-3640,PAYLOAD,2024-08-09 00:23:55,15.08860555,0.000124,53.2168,112.3957,100.9906,259.1226,4.2775e-05,3.93e-06,0.0,0 STARLINK-3640,1 51988U 22025AJ  24222.01660980  .00000393  00000-0  42775-4 0  9998,2 51988  53.2168 112.3957 0001240 100.9906 259.1226 15.08860555134961,6917.818,95.436,540.54,538.825,0.0
51988.0,STARLINK-3640,PAYLOAD,2024-08-09 09:56:14,15.08845393,0.0001447,53.2168,110.6117,84.5854,275.5303,-0.00011178,-2.067e-05,0.0,0 STARLINK-3640,1 51988U 22025AJ  24222.41406135 -.00002067  00000-0 -11178-3 0  9996,2 51988  53.2168 110.6117 0001447  84.5854 275.5303 15.08845393135027,6917.864,95.437,540.73,538.728,0.0
51988.0,STARLINK-3640,PAYLOAD,2024-08-09 16:17:47,15.08832638,0.0001145,53.2154,109.4262,85.2026,274.9097,5.972e-05,6.63e-06,0.0,0 STARLINK-3640,1 51988U 22025AJ  24222.67902515  .00000663  00000-0  59720-4 0  9991,2 51988  53.2154 109.4262 0001145  85.2026 274.9097 15.08832638135068,6917.903,95.438,540.56,538.976,0.0
51988.0,STARLINK-3640,PAYLOAD,2024-08-09 21:03:57,15.08833529,0.0001207,53.216,108.5342,81.1834,278.9294,5.6737e-05,6.15e-06,0.0,0 STARLINK-3640,1 51988U 22025AJ  24222.87774643  .00000615  00000-0  56737-4 0  9994,2 51988  53.2160 108.5342 0001207  81.1834 278.9294 15.08833529133987,6917.9,95.438,540.6,538.93,0.0
51988.0,STARLINK-3640,PAYLOAD,2024-08-10 00:14:42,15.08844222,7.93e-05,53.2168,107.9357,105.7267,254.3813,0.00016463,2.334e-05,0.0,0 STARLINK-3640,1 51988U 22025AJ  24223.01021498  .00002334  00000-0  16463-3 0  9995,2 51988  53.2168 107.9357 0000793 105.7267 254.3813 15.08844222135110,6917.867,95.437,540.281,539.184,0.0
51988.0,STARLINK-3640,PAYLOAD,2024-08-10 22:30:07,15.08848919,0.0001765,53.2167,103.7739,56.7298,303.3863,1.4578e-05,-5.6e-07,0.0,0 STARLINK-3640,1 51988U 22025AJ  24223.93758165 -.00000056  00000-0  14578-4 0  9990,2 51988  53.2167 103.7739 0001765  56.7298 303.3863 15.08848919134145,6917.853,95.437,540.939,538.497,0.0
51988.0,STARLINK-3640,PAYLOAD,2024-08-11 01:40:51,15.08867716,0.0001105,53.2171,103.1781,98.753,261.3588,0.00016425,2.329e-05,0.0,0 STARLINK-3640,1 51988U 22025AJ  24224.07004256  .00002329  00000-0  16425-3 0  9997,2 51988  53.2171 103.1781 0001105  98.7530 261.3588 15.08867716135272,6917.796,95.436,540.425,538.896,0.0
51988.0,STARLINK-3640,PAYLOAD,2024-08-11 09:37:49,15.088402,0.0001679,53.2168,101.6919,84.551,275.5674,-6.4161e-05,-1.309e-05,0.0,0 STARLINK-3640,1 51988U 22025AJ  24224.40126602 -.00001309  00000-0 -64161-4 0  9994,2 51988  53.2168 101.6919 0001679  84.5510 275.5674 15.08840200135329,6917.88,95.438,540.906,538.583,0.0
51988.0,STARLINK-3640,PAYLOAD,2024-08-11 22:20:54,15.08835965,9.85e-05,53.2161,99.3159,50.2975,309.8104,9.8579e-05,1.281e-05,0.0,0 STARLINK-3640,1 51988U 22025AJ  24224.93118542  .00001281  00000-0  98579-4 0  9993,2 51988  53.2161  99.3159 0000985  50.2975 309.8104 15.08835965134291,6917.893,95.438,540.439,539.076,0.0
51988.0,STARLINK-3640,PAYLOAD,2024-08-12 01:31:38,15.08865877,0.000116,53.2169,98.7176,75.6293,284.4828,0.00020853,3.035e-05,0.0,0 STARLINK-3640,1 51988U 22025AJ  24225.06364251  .00003035  00000-0  20853-3 0  9996,2 51988  53.2169  98.7176 0001160  75.6293 284.4828 15.08865877135423,6917.801,95.436,540.469,538.864,0.0
51988.0,STARLINK-3640,PAYLOAD,2024-08-12 15:50:08,15.08850788,0.0001514,53.2184,96.0371,95.1564,264.9601,-4.95e-05,-1.076e-05,0.0,0 STARLINK-3640,1 51988U 22025AJ  24225.65981955 -.00001076  00000-0 -49500-4 0  9993,2 51988  53.2184  96.0371 0001514  95.1564 264.9601 15.08850788135516,6917.847,95.437,540.76,538.665,0.0
51988.0,STARLINK-3640,PAYLOAD,2024-08-12 22:11:39,15.08872036,0.0001124,53.2175,94.8512,102.6902,257.4216,8.7927e-05,1.113e-05,0.0,0 STARLINK-3640,1 51988U 22025AJ  24225.92475978  .00001113  00000-0  87927-4 0  9991,2 51988  53.2175  94.8512 0001124 102.6902 257.4216 15.08872036134446,6917.782,95.436,540.425,538.87,0.0
51988.0,STARLINK-3640,PAYLOAD,2024-08-13 07:43:58,15.08851022,0.00019,53.2163,93.065,57.8852,302.2324,-2.6562e-05,-7.11e-06,0.0,0 STARLINK-3640,1 51988U 22025AJ  24226.32220816 -.00000711  00000-0 -26562-4 0  9998,2 51988  53.2163  93.0650 0001900  57.8852 302.2324 15.08851022135615,6917.847,95.437,541.026,538.397,0.0
51988.0,STARLINK-3640,PAYLOAD,2024-08-13 15:40:58,15.08804318,0.0001935,53.2172,91.5815,81.5861,278.535,-0.00023808,-4.072e-05,0.0,0 STARLINK-3640,1 51988U 22025AJ  24226.65345341 -.00004072  00000-0 -23808-3 0  9998,2 51988  53.2172  91.5815 0001935  81.5861 278.5350 15.08804318135668,6917.989,95.44,541.193,538.516,0.0
51988.0,STARLINK-3640,PAYLOAD,2024-08-13 22:02:29,15.08821284,0.0003117,53.216,90.3927,94.7328,265.402,-0.00021432,-3.697e-05,0.0,0 STARLINK-3640,1 51988U 22025AJ  24226.91839573 -.00003697  00000-0 -21432-3 0  9995,2 51988  53.2160  90.3927 0003117  94.7328 265.4020 15.08821284134595,6917.938,95.439,541.959,537.646,0.0
51988.0,STARLINK-3640,PAYLOAD,2024-08-14 07:34:48,15.08822661,0.0002307,53.2163,88.6069,88.5618,271.5639,-0.00030231,-5.094e-05,0.0,0 STARLINK-3640,1 51988U 22025AJ  24227.31583829 -.00005094  00000-0 -30231-3 0  9990,2 51988  53.2163  88.6069 0002307  88.5618 271.5639 15.08822661134659,6917.933,95.439,541.394,538.202,0.0
51988.0,STARLINK-3640,PAYLOAD,2024-08-14 18:42:29,15.08841316,0.0001062,53.2146,86.5186,57.1267,302.9827,-4.3295e-05,-9.77e-06,0.0,0 STARLINK-3640,1 51988U 22025AJ  24227.77950811 -.00000977  00000-0 -43295-4 0  9999,2 51988  53.2146  86.5186 0001062  57.1267 302.9827 15.08841316135833,6917.876,95.437,540.476,539.007,0.0
51988.0,STARLINK-3640,PAYLOAD,2024-08-14 21:53:15,15.08851861,0.0001242,53.217,85.9331,98.6919,261.4214,2.8332e-05,1.63e-06,0.0,0 STARLINK-3640,1 51988U 22025AJ  24227.91198249  .00000163  00000-0  28332-4 0  9994,2 51988  53.2170  85.9331 0001242  98.6919 261.4214 15.08851861134743,6917.844,95.437,540.568,538.85,0.0
51988.0,STARLINK-3640,PAYLOAD,2024-08-15 07:25:34,15.08844346,0.0001266,53.2162,84.1482,79.9244,280.1891,0.00011829,1.595e-05,0.0,0 STARLINK-3640,1 51988U 22025AJ  24228.30942475  .00001595  00000-0  11829-3 0  9998,2 51988  53.2162  84.1482 0001266  79.9244 280.1891 15.08844346134807,6917.867,95.437,540.608,538.856,0.0
51988.0,STARLINK-3640,PAYLOAD,2024-08-15 21:44:05,15.08817125,0.0002476,53.2169,81.4676,81.3941,278.7332,9.7841e-05,1.268e-05,0.0,0 STARLINK-3640,1 51988U 22025AJ  24228.90561489  .00001268  00000-0  97841-4 0  9992,2 51988  53.2169  81.4676 0002476  81.3941 278.7332 15.08817125134891,6917.95,95.439,541.528,538.102,0.0
51988.0,STARLINK-3640,PAYLOAD,2024-08-16 21:34:49,15.08858796,0.0001031,53.2163,77.0082,123.0749,237.0342,6.142e-05,6.9e-06,0.0,0 STARLINK-3640,1 51988U 22025AJ  24229.89918177  .00000690  00000-0  61420-4 0  9993,2 51988  53.2163  77.0082 0001031 123.0749 237.0342 15.08858796135049,6917.823,95.436,540.401,538.975,0.0
51988.0,STARLINK-3640,PAYLOAD,2024-08-17 13:28:41,15.08837731,0.0001105,53.2167,74.035,96.9583,263.1535,6.0171e-06,-1.92e-06,0.0,0 STARLINK-3640,1 51988U 22025AJ  24230.56159219 -.00000192  00000-0  60171-5 0  9994,2 51988  53.2167  74.0350 0001105  96.9583 263.1535 15.08837731135145,6917.887,95.438,540.517,538.988,0.0
51988.0,STARLINK-3640,PAYLOAD,2024-08-17 23:01:00,15.0884193,0.0001058,53.2164,72.2519,95.9849,264.1264,4.025e-05,3.53e-06,0.0,0 STARLINK-3640,1 51988U 22025AJ  24230.95903051  .00000353  00000-0  40250-4 0  9991,2 51988  53.2164  72.2519 0001058  95.9849 264.1264 15.08841930135203,6917.874,95.437,540.471,539.008,0.0
51988.0,STARLINK-3640,PAYLOAD,2024-08-18 19:41:00,15.08840293,0.0001206,53.2169,68.3879,82.8591,277.2538,0.00010474,1.379e-05,0.0,0 STARLINK-3640,1 51988U 22025AJ  24231.82014994  .00001379  00000-0  10474-3 0  9990,2 51988  53.2169  68.3879 0001206  82.8591 277.2538 15.08840293136444,6917.879,95.438,540.579,538.91,0.0
51988.0,STARLINK-3640,PAYLOAD,2024-08-19 13:10:15,15.08837086,0.0001172,53.2168,65.1055,155.0573,205.0476,-4.9496e-05,-1.075e-05,0.0,0 STARLINK-3640,1 51988U 22025AJ  24232.54879530 -.00001075  00000-0 -49496-4 0  9997,2 51988  53.2168  65.1055 0001172 155.0573 205.0476 15.08837086136557,6917.889,95.438,540.565,538.944,0.0
51988.0,STARLINK-3640,PAYLOAD,2024-08-20 11:25:39,15.08838132,0.0001236,53.2171,60.9515,96.2257,263.8876,5.3499e-05,5.64e-06,0.0,0 STARLINK-3640,1 51988U 22025AJ  24233.47615709  .00000564  00000-0  53499-4 0  9994,2 51988  53.2171  60.9515 0001236  96.2257 263.8876 15.08838132135582,6917.886,95.438,540.606,538.896,0.0
51988.0,STARLINK-3640,PAYLOAD,2024-08-20 19:22:34,15.08848691,0.0001099,53.2167,59.4651,87.0535,273.0583,0.00010531,1.389e-05,0.0,0 STARLINK-3640,1 51988U 22025AJ  24233.80734896  .00001389  00000-0  10531-3 0  9995,2 51988  53.2167  59.4651 0001099  87.0535 273.0583 15.08848691136743,6917.854,95.437,540.479,538.959,0.0
51988.0,STARLINK-3640,PAYLOAD,2024-08-21 17:37:59,15.08835204,0.000115,53.2175,55.3018,101.2304,258.8818,0.00010525,1.387e-05,0.0,0 STARLINK-3640,1 51988U 22025AJ  24234.73472104  .00001387  00000-0  10525-3 0  9990,2 51988  53.2175  55.3018 0001150 101.2304 258.8818 15.08835204136888,6917.895,95.438,540.556,538.964,0.0
